[{"OBJECT_NAME":"STARLINK-6041","OBJECT_ID":"2023-064AG","EPOCH":"2026-03-09T12:25:52.700448","MEAN_MOTION":14.98304487,"ECCENTRICITY":0.00030426,"INCLINATION":69.9997,"RA_OF_ASC_NODE":124.8907,"ARG_OF_PERICENTER":271.043,"MEAN_ANOMALY":89.038,"EPHEMERIS_TYPE":0,"CLASSIFICATION_TYPE":"U","NORAD_CAT_ID":56478,"ELEMENT_SET_NO":999,"REV_AT_EPOCH":15571,"BSTAR":0.00041651172,"MEAN_MOTION_DOT":4.877e-5,"MEAN_MOTION_DDOT":0},{"OBJECT_NAME":"NIGERIASAT-1","OBJECT_ID":"2003-042C","EPOCH":"2026-03-09T23:18:28.284480","MEAN_MOTION":14.90021828,"ECCENTRICITY":0.00412391,"INCLINATION":98.0062,"RA_OF_ASC_NODE":259.4679,"ARG_OF_PERICENTER":255.6174,"MEAN_ANOMALY":104.0464,"EPHEMERIS_TYPE":0,"CLASSIFICATION_TYPE":"U","NORAD_CAT_ID":27941,"ELEMENT_SET_NO":999,"REV_AT_EPOCH":20905,"BSTAR":0.0001905973,"MEAN_MOTION_DOT":1.807e-5,"MEAN_MOTION_DDOT":0}]
